[{"OBJECT_NAME":"STARLINK-1063","OBJECT_ID":"2019-074BH","EPOCH":"2026-03-09T18:03:14.732640","MEAN_MOTION":15.29959368,"ECCENTRICITY":0.00012189,"INCLINATION":53.1603,"RA_OF_ASC_NODE":219.104,"ARG_OF_PERICENTER":60.1573,"MEAN_ANOMALY":299.9548,"EPHEMERIS_TYPE":0,"CLASSIFICATION_TYPE":"U","NORAD_CAT_ID":44768,"ELEMENT_SET_NO":999,"REV_AT_EPOCH":34832,"BSTAR":-0.029857537,"MEAN_MOTION_DOT":-0.00812325,"MEAN_MOTION_DDOT":0},{"OBJECT_NAME":"CZ-6A DEB","OBJECT_ID":"2022-151CC","EPOCH":"2026-03-09T19:21:24.185952","MEAN_MOTION":15.21292269,"ECCENTRICITY":0.00294338,"INCLINATION":98.6347,"RA_OF_ASC_NODE":160.1892,"ARG_OF_PERICENTER":145.6687,"MEAN_ANOMALY":214.6455,"EPHEMERIS_TYPE":0,"CLASSIFICATION_TYPE":"U","NORAD_CAT_ID":54333,"ELEMENT_SET_NO":999,"REV_AT_EPOCH":17712,"BSTAR":0.0073643753,"MEAN_MOTION_DOT":0.00170206,"MEAN_MOTION_DDOT":0}]
